ONEWEB-0490             
1 54113U 22138A   22305.00002315 -.00009064  00000+0 -93104-3 0  9993
2 54113  87.4291 213.9396 0011301 257.3191  19.6516 14.90579754  2241
ONEWEB-0492             
1 54114U 22138B   22305.58334491  .00061024  00000+0  62394-2 0  9998
2 54114  87.4301 213.7523 0012682 257.0433 255.8773 14.90208853  2331
ONEWEB-0495             
1 54115U 22138C   22305.58334491  .00060682  00000+0  63568-2 0  9992
2 54115  87.4312 213.7600 0013104 275.9311 202.6356 14.89227846  2321
ONEWEB-0497             
1 54116U 22138D   22305.58334491  .00061115  00000+0  62855-2 0  9993
2 54116  87.4319 213.7557 0013254 262.1090 242.3388 14.89966365  2320
ONEWEB-0499             
1 54117U 22138E   22305.58334491  .00060941  00000+0  62241-2 0  9999
2 54117  87.4313 213.7523 0012530 256.7627 257.7842 14.90254726  2338
ONEWEB-0500             
1 54118U 22138F   22305.58334491  .00060136  00000+0  60252-2 0  9996
2 54118  87.4299 213.7455 0009083 256.3953 286.2984 14.91056376  2339
ONEWEB-0501             
1 54119U 22138G   22305.25001157  .00014132  00000+0  14681-2 0  9991
2 54119  87.4280 213.8593 0013697 267.8899 241.9377 14.89767002  2286
ONEWEB-0502             
1 54120U 22138H   22305.25001157  .00014842  00000+0  15034-2 0  9994
2 54120  87.4299 213.8550 0010071 254.8660 290.5434 14.90815423  2283
ONEWEB-0503             
1 54121U 22138J   22305.25001157  .00014575  00000+0  14941-2 0  9994
2 54121  87.4289 213.8593 0012336 258.3470 270.1550 14.90317520  2282
ONEWEB-0504             
1 54122U 22138K   22305.50001157 -.00002524  00000+0 -25856-3 0  9994
2 54122  87.4306 213.7784 0009013 257.1550 195.1654 14.90988171  2319
ONEWEB-0505             
1 54123U 22138L   22305.58334491  .00060774  00000+0  63455-2 0  9998
2 54123  87.4285 213.7523 0013186 271.4007 211.6110 14.89359912  2324
ONEWEB-0506             
1 54124U 22138M   22305.58334491  .00074037  00000+0  77033-2 0  9993
2 54124  87.4303 213.7564 0014650 272.4552 214.6010 14.89412934  2320
ONEWEB-0507             
1 54125U 22138N   22305.25001157  .00014913  00000+0  14911-2 0  9991
2 54125  87.4298 213.8532 0008072 261.3374 302.2627 14.91348717  2283
ONEWEB-0508             
1 54126U 22138P   22305.58334491  .00060693  00000+0  61508-2 0  9998
2 54126  87.4305 213.7505 0011116 254.0479 272.0511 14.90580518  2338
ONEWEB-0509             
1 54127U 22138Q   22305.58334491  .00061209  00000+0  63175-2 0  9995
2 54127  87.4324 213.7571 0013521 264.5502 234.8087 14.89820687  2323
ONEWEB-0510             
1 54128U 22138R   22305.58334491  .00059144  00000+0  58331-2 0  9999
2 54128  87.4293 213.7427 0008192 274.1673 291.1298 14.91698980  2336
ONEWEB-0511             
1 54129U 22138S   22305.58334491  .00060400  00000+0  60850-2 0  9996
2 54129  87.4307 213.7514 0009974 253.3693 281.3029 14.90828225  2339
ONEWEB-0512             
1 54130U 22138T   22305.50001157 -.00001240  00000+0 -13185-3 0  9999
2 54130  87.4275 213.7776 0013075 264.3674 150.0142 14.89899173  2317
ONEWEB-0513             
1 54131U 22138U   22305.58334491 -.00928373  00000+0 -13800+0 0  9993
2 54131  87.4487 213.7718 0008140 262.8935 137.4747 14.78071544  2322
ONEWEB-0514             
1 54132U 22138V   22305.58334491  .00060300  00000+0  60634-2 0  9999
2 54132  87.4300 213.7459 0009628 254.5048 283.0288 14.90907432  2331
ONEWEB-0515             
1 54133U 22138W   22305.25001157  .00043129  00000+0  42798-2 0  9995
2 54133  87.4274 213.8482 0008041 268.2550 300.8758 14.91539259  2280
ONEWEB-0516             
1 54134U 22138X   22305.25001157  .00014813  00000+0  15021-2 0  9993
2 54134  87.4303 213.8574 0010219 254.4183 289.5046 14.90769362  2287
ONEWEB-0517             
1 54135U 22138Y   22305.25001157  .00014652  00000+0  14969-2 0  9995
2 54135  87.4285 213.8585 0011746 257.2528 276.0265 14.90457420  2282
ONEWEB-0518             
1 54136U 22138Z   22305.25001157  .00014427  00000+0  14876-2 0  9993
2 54136  87.4301 213.8606 0012577 262.5760 257.8966 14.90078477  2282
ONEWEB-0519             
1 54137U 22138AA  22305.58334491  .00060074  00000+0  60142-2 0  9996
2 54137  87.4305 213.7495 0008950 256.9647 286.9069 14.91089429  2336
ONEWEB-0520             
1 54138U 22138AB  22305.58334491  .00060770  00000+0  61684-2 0  9992
2 54138  87.4315 213.7510 0011576 255.0440 268.5244 14.90512555  2336
ONEWEB-0521             
1 54139U 22138AC  22305.00002315 -.00008753  00000+0 -93153-3 0  9999
2 54139  87.4292 213.9444 0013107 280.9951 308.3487 14.89134536  2244
ONEWEB-0522             
1 54140U 22138AD  22305.00002315 -.00008968  00000+0 -94033-3 0  9997
2 54140  87.4313 213.9451 0013852 269.4556 339.2389 14.89724889  2248
ONEWEB-0523             
1 54141U 22138AE  22305.58334491 -.00014093  00000+0 -14078-2 0  9990
2 54141  87.4309 213.7458 0008124 272.7711 290.8994 14.91704285  2330
ONEWEB-0524             
1 54142U 22138AF  22305.58334491  .00059663  00000+0  58962-2 0  9991
2 54142  87.4280 213.7408 0008021 271.8097 290.4090 14.91615929  2336
ONEWEB-0525             
1 54143U 22138AG  22305.00002315 -.00008715  00000+0 -89920-3 0  9999
2 54143  87.4317 213.9406 0012041 258.6810  12.2940 14.90396509  2244
ONEWEB-0526             
1 54144U 22138AH  22305.00002315 -.00008960  00000+0 -94020-3 0  9999
2 54144  87.4294 213.9430 0013913 269.9567 337.8569 14.89696132  2245
ONEWEB-0529             
1 54145U 22138AJ  22305.00002315 -.00008628  00000+0 -89817-3 0  9999
2 54145  87.4283 213.9401 0013244 264.2881 354.4105 14.90025041  2244
ONEWEB-0531             
1 54146U 22138AK  22305.58334491  .00059837  00000+0  59249-2 0  9997
2 54146  87.4317 213.7480 0008157 272.0489 287.4329 14.91536492  2337
ONEWEB-0535             
1 54147U 22138AL  22305.58334491 -.00005621  00000+0 -56997-3 0  9990
2 54147  87.4302 213.7472 0008828 257.4685 287.7736 14.91174806  2335
ONEWEB-0536             
1 54148U 22138AM  22305.00002315 -.00008603  00000+0 -86585-3 0  9994
2 54148  87.4311 213.9368 0007977 267.7081  37.1747 14.91425146  2245
GSLV R/B                
1 54149U 22138AN  22304.83414785  .00002183  00000+0  23848-3 0  9991
2 54149  87.3899 214.0068 0022888 248.2241 111.6550 14.87239438  1358
GONETS-M 23             
1 54150U 22139A   22305.38688950  .00000010  00000+0  00000+0 0  9990
2 54150  82.4992  90.8765 0011865 252.0936 107.8853 12.43421259  1190
GONETS-M 24             
1 54151U 22139B   22305.38548261  .00000010  00000+0  00000+0 0  9991
2 54151  82.4939  90.8683 0012224 247.2950 112.6843 12.43605554  1198
GONETS-M 25             
1 54152U 22139C   22305.46314739  .00000010  00000+0  00000+0 0  9992
2 54152  82.4975  90.8208 0013416 240.4637 119.5113 12.43968032  1204
PROGRESS-MS 21          
1 54155U 22140A   22304.51317130  .00016748  00000+0  30494-3 0  9999
2 54155  51.6438  21.2332 0006312  23.9726 155.8350 15.49597428366324
2022-142A               
1 54214U 22142A   22305.24608000 -.00000139  00000+0  00000+0 0  9991
2 54214  59.9951 352.5002 0033222 157.3651 316.3685 14.35496923   461
2022-142B               
1 54215U 22142B   22305.36813785 -.00000139  00000+0  00000+0 0  9993
2 54215  59.9032 352.0093 0026457 201.3155 158.6783 14.33505145   481
CSS (MENGTIAN)          
1 54216U 22143A   22304.75570515 -.00000347  00000+0  00000+0 0  9999
2 54216  41.4734 106.8095 0005006 271.6179 217.9061 15.61487463    41
CZ-5B R/B               
1 54217U 22143B   22305.80386634  .02125926  76209-5  54124-3 0  9996
2 54217  41.4728  99.8283 0093307 184.0721 314.6755 16.16924760   239
NOAA 1 [-]              
1 04793U 70106A   22304.41469574 -.00000043  00000+0  45656-5 0  9996
2 04793 101.5408   4.7176 0031765  58.2344 313.3920 12.54008552375117
NOAA 2 (ITOS-D) [-]     
1 06235U 72082A   22305.20474698 -.00000021  00000+0  15789-3 0  9993
2 06235 101.9700 288.3640 0003913 169.9411 201.2128 12.53153216289323
NOAA 3 [-]              
1 06920U 73086A   22304.72321332 -.00000026  00000+0  15093-3 0  9994
2 06920 102.2244 286.7357 0006776  39.4181 152.4618 12.40349706217681
NOAA 4 [-]              
1 07529U 74089A   22305.44600951 -.00000012  00000+0  21242-3 0  9999
2 07529 101.9314 285.5628 0008728 201.0444 275.1893 12.53161866193951
NOAA 5 [-]              
1 09057U 76077A   22304.89748160 -.00000013  00000+0  24787-3 0  9997
2 09057 102.1188 271.5158 0009479 248.9564 125.2022 12.37775776 90623
TIROS N [-]             
1 11060U 78096A   22304.84448630  .00000179  00000+0  10710-3 0  9994
2 11060  98.6190 354.8653 0011671 109.6178 250.6259 14.18431018490941
NOAA 6 [-]              
1 11416U 79057A   22304.76286946  .00000271  00000+0  11341-3 0  9992
2 11416  98.6631 315.8317 0009722 211.4572 148.6032 14.33825375261057
NOAA 7 [-]              
1 12553U 81059A   22304.75938291  .00000060  00000+0  52116-4 0  9998
2 12553  98.9828 350.7627 0012522  88.8133 271.4475 14.17351692137106
NOAA 8 [-]              
1 13923U 83022A   22304.76968320  .00000179  00000+0  88698-4 0  9994
2 13923  98.6988 294.8594 0015237 166.9620 193.1959 14.28848850 61874
NOAA 9 [-]              
1 15427U 84123A   22305.45136005  .00000151  00000+0  99519-4 0  9996
2 15427  99.0638 280.0982 0015461 134.4006 337.8703 14.16239062956230
NOAA 10 [-]             
1 16969U 86073A   22304.71176392  .00000171  00000+0  86104-4 0  9993
2 16969  98.5826 288.4475 0011106 274.3755 137.6145 14.28237975880282
NOAA 11 [-]             
1 19531U 88089A   22304.71396062  .00000083  00000+0  63751-4 0  9993
2 19531  98.4394 286.3987 0011794 141.3448 218.8573 14.15330814760094
NOAA 12 [-]             
1 21263U 91032A   22305.45606235  .00000124  00000+0  69628-4 0  9993
2 21263  98.5220 301.4861 0012641 301.2716  58.7226 14.26023579636519
NOAA 13 [-]             
1 22739U 93050A   22304.70104936  .00000136  00000+0  95122-4 0  9993
2 22739  98.5226 277.8128 0008826 319.2453  40.8059 14.12875553506292
